NOAA 15                 
1 25338U 98030A   24154.50795885  .00000324  00000+0  15210-3 0  9994
2 25338  98.5690 181.9410 0010477  14.8959 345.2528 14.26591675355344
NOAA 18                 
1 28654U 05018A   24154.48180339  .00000296  00000+0  18171-3 0  9998
2 28654  98.8743 231.5684 0015370 104.8334 255.4542 14.13220667981180
NOAA 19                 
1 33591U 09005A   24154.50190808  .00000265  00000+0  16623-3 0  9995
2 33591  99.0477 210.1451 0013252 337.8721  22.1877 14.13017192789557
METOP-B                 
1 38771U 12049A   24154.46253019  .00000185  00000+0  10404-3 0  9993
2 38771  98.6278 212.0153 0001862  88.4476 271.6915 14.21544945607458
SARAL                   
1 39086U 13009A   24154.20184157  .00000186  00000+0  84739-4 0  9992
2 39086  98.5510 339.5252 0001660   8.3211 351.8000 14.32421194588934
METOP-C                 
1 43689U 18087A   24154.50040718  .00000194  00000+0  10866-3 0  9992
2 43689  98.7240 213.9481 0003112 118.2943 241.8548 14.21482185289035
ANGELS                  
1 44876U 19092D   24153.81258934  .00007681  00000+0  29358-3 0  9996
2 44876  97.4754 342.3551 0010147  23.1617 337.0077 15.26845491247019
OTB-3-GAZELLE           
1 54023U 22127A   24153.99478190  .00000295  00000+0  10265-3 0  9992
2 54023  98.3425 148.6330 0012000 278.2887  81.6942 14.42101276 86931
EOS-6 (OCEANSAT-3)      
1 54361U 22158A   24154.49612950  .00000534  00000+0  15890-3 0  9996
2 54361  98.3517 251.7220 0000957 110.0366 250.0930 14.46979769 80145
